[
    {
      "_id": "5b546f272355fba31dd2f511",
      "name": "House Barnes",
      "address": "686 Beacon Court",
      "city": "Courtland",
      "state": "Florida",
      "zip": 5509
    },
    {
      "_id": "5b546f272f39f676d0482def",
      "name": "Edna Kerr",
      "address": "366 Milford Street",
      "city": "Yogaville",
      "state": "Maryland",
      "zip": 3877
    },
    {
      "_id": "5b546f271d4a6233b92b280b",
      "name": "Morris Haney",
      "address": "968 Cumberland Walk",
      "city": "Independence",
      "state": "Georgia",
      "zip": 2812
    },
    {
      "_id": "5b546f273fa5c6557c54118b",
      "name": "Milagros Steele",
      "address": "711 Chestnut Avenue",
      "city": "Kenmar",
      "state": "Federated States Of Micronesia",
      "zip": 5230
    },
    {
      "_id": "5b546f27e824bff6d481db82",
      "name": "Velazquez Bentley",
      "address": "736 Gates Avenue",
      "city": "Nile",
      "state": "Connecticut",
      "zip": 2356
    },
    {
      "_id": "5b546f2794b643aa27d450c8",
      "name": "Craig Buck",
      "address": "766 Ryder Street",
      "city": "Greenbackville",
      "state": "Indiana",
      "zip": 8887
    },
    {
      "_id": "5b546f2795f2aab708bfc332",
      "name": "Nixon Workman",
      "address": "427 Celeste Court",
      "city": "Edmund",
      "state": "Alaska",
      "zip": 8631
    },
    {
      "_id": "5b546f27c482469428e81807",
      "name": "Fry Moss",
      "address": "118 Florence Avenue",
      "city": "Layhill",
      "state": "Virgin Islands",
      "zip": 6532
    },
    {
      "_id": "5b546f27af783eab52630ac9",
      "name": "Trudy Morrow",
      "address": "218 Bulwer Place",
      "city": "Chelsea",
      "state": "Illinois",
      "zip": 4877
    },
    {
      "_id": "5b546f27515a6a1f1d332052",
      "name": "Turner Cotton",
      "address": "608 Jodie Court",
      "city": "Winesburg",
      "state": "Virginia",
      "zip": 8114
    },
    {
      "_id": "5b546f27d58d7b4f82f0f6b0",
      "name": "Eleanor York",
      "address": "325 Tudor Terrace",
      "city": "Hachita",
      "state": "Colorado",
      "zip": 6017
    },
    {
      "_id": "5b546f2727237e7906f5cdba",
      "name": "Noemi Douglas",
      "address": "246 Liberty Avenue",
      "city": "Logan",
      "state": "Maine",
      "zip": 3535
    },
    {
      "_id": "5b546f27085f3a5dd91f88a5",
      "name": "Kathy Talley",
      "address": "184 Lake Place",
      "city": "Konterra",
      "state": "Oklahoma",
      "zip": 4180
    },
    {
      "_id": "5b546f27daebf0dc46d8de9f",
      "name": "Chapman Blackburn",
      "address": "100 Opal Court",
      "city": "Thynedale",
      "state": "Mississippi",
      "zip": 751
    },
    {
      "_id": "5b546f272d577c04c8dd34fe",
      "name": "Deena Elliott",
      "address": "355 Bassett Avenue",
      "city": "Innsbrook",
      "state": "Missouri",
      "zip": 4808
    },
    {
      "_id": "5b546f2707ab96a22f4af256",
      "name": "Vickie Watson",
      "address": "820 Commerce Street",
      "city": "Wyano",
      "state": "New Jersey",
      "zip": 1921
    },
    {
      "_id": "5b546f27dd7017130d0729f4",
      "name": "Kendra Wiley",
      "address": "292 Herkimer Place",
      "city": "Whitehaven",
      "state": "Kentucky",
      "zip": 4261
    },
    {
      "_id": "5b546f2737b646a0b19f91a5",
      "name": "Smith Moore",
      "address": "571 Chase Court",
      "city": "Gouglersville",
      "state": "California",
      "zip": 5658
    },
    {
      "_id": "5b546f27339610d8ae497540",
      "name": "Fleming Church",
      "address": "283 Euclid Avenue",
      "city": "Romeville",
      "state": "Arizona",
      "zip": 7715
    },
    {
      "_id": "5b546f2713d37469b86089ca",
      "name": "Mathis Munoz",
      "address": "220 Lawton Street",
      "city": "Harborton",
      "state": "Wyoming",
      "zip": 1329
    },
    {
      "_id": "5b546f27bdbdce46b29f77d6",
      "name": "Alicia Mitchell",
      "address": "745 Pleasant Place",
      "city": "Allamuchy",
      "state": "Northern Mariana Islands",
      "zip": 3675
    },
    {
      "_id": "5b546f272bd6080bfd4035b5",
      "name": "Mable Gray",
      "address": "969 Powell Street",
      "city": "Bentley",
      "state": "Ohio",
      "zip": 5558
    },
    {
      "_id": "5b546f27bf02fc260bc57d08",
      "name": "Cara Stark",
      "address": "402 Colby Court",
      "city": "Gerton",
      "state": "Alabama",
      "zip": 861
    },
    {
      "_id": "5b546f273f62e6ad5bc92e57",
      "name": "Bernadette Hines",
      "address": "850 Tompkins Avenue",
      "city": "Fredericktown",
      "state": "Minnesota",
      "zip": 2184
    },
    {
      "_id": "5b546f27af1ce0f14b99fa5d",
      "name": "Tameka Wise",
      "address": "672 Jay Street",
      "city": "Denio",
      "state": "West Virginia",
      "zip": 5397
    },
    {
      "_id": "5b546f271a32ae9ab83d482a",
      "name": "Whitney Byrd",
      "address": "282 Dunne Place",
      "city": "Reinerton",
      "state": "Puerto Rico",
      "zip": 2028
    },
    {
      "_id": "5b546f27301eb03218c4b910",
      "name": "Floyd Martin",
      "address": "262 Ocean Parkway",
      "city": "Coldiron",
      "state": "Kansas",
      "zip": 3366
    },
    {
      "_id": "5b546f277243ad7d24810e8f",
      "name": "Nash Summers",
      "address": "115 Cranberry Street",
      "city": "Maybell",
      "state": "Marshall Islands",
      "zip": 4461
    },
    {
      "_id": "5b546f27e6163dab00b24d09",
      "name": "Marylou Thompson",
      "address": "320 Kensington Street",
      "city": "Gibsonia",
      "state": "Iowa",
      "zip": 4207
    },
    {
      "_id": "5b546f27d846c651ba8eb4b1",
      "name": "Terrie Gates",
      "address": "431 Ferry Place",
      "city": "Jugtown",
      "state": "Utah",
      "zip": 7749
    },
    {
      "_id": "5b546f27925439c707b2afee",
      "name": "Janis Nielsen",
      "address": "648 Kent Avenue",
      "city": "Harrodsburg",
      "state": "Delaware",
      "zip": 2703
    },
    {
      "_id": "5b546f2713125d9553a805bb",
      "name": "Monica French",
      "address": "847 Channel Avenue",
      "city": "Verdi",
      "state": "Hawaii",
      "zip": 5629
    },
    {
      "_id": "5b546f27260e7f28f4fab2ff",
      "name": "Cobb Ward",
      "address": "996 Brooklyn Road",
      "city": "Hendersonville",
      "state": "American Samoa",
      "zip": 536
    },
    {
      "_id": "5b546f27598ada0f66e63742",
      "name": "Small Carney",
      "address": "817 Pulaski Street",
      "city": "Greenbush",
      "state": "Washington",
      "zip": 7210
    },
    {
      "_id": "5b546f270991220604a878a4",
      "name": "Anderson Brock",
      "address": "626 Downing Street",
      "city": "Whipholt",
      "state": "District Of Columbia",
      "zip": 4625
    },
    {
      "_id": "5b546f270a16abc26598da62",
      "name": "Lawrence Carrillo",
      "address": "559 Fane Court",
      "city": "Maxville",
      "state": "Oregon",
      "zip": 9539
    },
    {
      "_id": "5b546f2724e0228b5bd28c7b",
      "name": "Madden Hurst",
      "address": "414 Boardwalk ",
      "city": "Spokane",
      "state": "Vermont",
      "zip": 3198
    },
    {
      "_id": "5b546f27e33a20d5f6ece1a7",
      "name": "Craft Combs",
      "address": "530 Bush Street",
      "city": "Ahwahnee",
      "state": "Louisiana",
      "zip": 1122
    },
    {
      "_id": "5b546f27d4aff0a0c8becaba",
      "name": "Alexander Rivas",
      "address": "359 Sumpter Street",
      "city": "Dyckesville",
      "state": "Nevada",
      "zip": 1337
    },
    {
      "_id": "5b546f27b103aa3b0fba3e09",
      "name": "Nellie Good",
      "address": "652 Sapphire Street",
      "city": "Brewster",
      "state": "New Mexico",
      "zip": 2385
    },
    {
      "_id": "5b546f270d94e70405a7565d",
      "name": "Rebekah Sharp",
      "address": "507 Windsor Place",
      "city": "Coleville",
      "state": "North Dakota",
      "zip": 7462
    },
    {
      "_id": "5b546f278a039feff9fae4c3",
      "name": "Gracie Foster",
      "address": "867 Amber Street",
      "city": "Bowie",
      "state": "South Carolina",
      "zip": 1402
    },
    {
      "_id": "5b546f27c30ed2d57b7408d3",
      "name": "Emma Miles",
      "address": "279 Tabor Court",
      "city": "Gadsden",
      "state": "Rhode Island",
      "zip": 5033
    },
    {
      "_id": "5b546f27c43b7673368e4dc3",
      "name": "Bird Marks",
      "address": "995 Conway Street",
      "city": "Ryderwood",
      "state": "Texas",
      "zip": 3851
    },
    {
      "_id": "5b546f27760e4693f95b2cef",
      "name": "Daphne Bruce",
      "address": "678 Terrace Place",
      "city": "Garnet",
      "state": "North Carolina",
      "zip": 9674
    },
    {
      "_id": "5b546f27d6d6eccb0ce066a4",
      "name": "Long Cantrell",
      "address": "777 Beach Place",
      "city": "Dunnavant",
      "state": "Idaho",
      "zip": 8497
    },
    {
      "_id": "5b546f27d81c635157e8ab40",
      "name": "Berta Hall",
      "address": "725 Bragg Street",
      "city": "Crown",
      "state": "Palau",
      "zip": 6281
    },
    {
      "_id": "5b546f2720160d50c0a3dd83",
      "name": "Carter Gomez",
      "address": "342 Linwood Street",
      "city": "Russellville",
      "state": "Michigan",
      "zip": 4506
    },
    {
      "_id": "5b546f27aea9b17db7c12fba",
      "name": "Benita Russo",
      "address": "987 Cove Lane",
      "city": "Grandview",
      "state": "Wisconsin",
      "zip": 9350
    },
    {
      "_id": "5b546f277eb3cf47930b4d6c",
      "name": "Kirkland Rodgers",
      "address": "942 Russell Street",
      "city": "Allensworth",
      "state": "Arkansas",
      "zip": 8343
    },
    {
      "_id": "5b546f271c4fa1bed77a2857",
      "name": "Marsha Santos",
      "address": "526 Gem Street",
      "city": "Walland",
      "state": "Massachusetts",
      "zip": 4590
    },
    {
      "_id": "5b546f27280f516875e2c70b",
      "name": "Aurora Johnston",
      "address": "684 Boerum Place",
      "city": "Brooktrails",
      "state": "Montana",
      "zip": 1600
    },
    {
      "_id": "5b546f279f234276f3d18c7e",
      "name": "Norma Pennington",
      "address": "325 Neptune Avenue",
      "city": "Roderfield",
      "state": "Guam",
      "zip": 4991
    },
    {
      "_id": "5b546f2711ad7408ea99332d",
      "name": "Maryanne Dunlap",
      "address": "639 Forrest Street",
      "city": "Haring",
      "state": "Nebraska",
      "zip": 6124
    },
    {
      "_id": "5b546f278a9953436396fbca",
      "name": "Rita Holland",
      "address": "139 Bushwick Avenue",
      "city": "Warren",
      "state": "Tennessee",
      "zip": 1241
    },
    {
      "_id": "5b546f2709b5752f2caed64c",
      "name": "Luna Ratliff",
      "address": "103 Neptune Court",
      "city": "Holcombe",
      "state": "South Dakota",
      "zip": 8281
    },
    {
      "_id": "5b546f27569546733bea5938",
      "name": "Jeannie Lane",
      "address": "544 Hendrix Street",
      "city": "Sperryville",
      "state": "Pennsylvania",
      "zip": 261
    },
    {
      "_id": "5b546f2794a5be8800a495a1",
      "name": "Bridget Powers",
      "address": "382 Bath Avenue",
      "city": "Brantleyville",
      "state": "New Hampshire",
      "zip": 1165
    },
    {
      "_id": "5b546f27ca43f0f9e0f38eb3",
      "name": "Bowen Sargent",
      "address": "853 Kingsway Place",
      "city": "Century",
      "state": "Florida",
      "zip": 9933
    },
    {
      "_id": "5b546f271bcdf50439e9fa22",
      "name": "Bettie Jennings",
      "address": "510 Scott Avenue",
      "city": "Herlong",
      "state": "Maryland",
      "zip": 5206
    },
    {
      "_id": "5b546f274c323829bbb0753e",
      "name": "Lynn Roman",
      "address": "413 Randolph Street",
      "city": "Muir",
      "state": "Georgia",
      "zip": 5069
    },
    {
      "_id": "5b546f271b02086d951b79c7",
      "name": "Amy Hernandez",
      "address": "871 Georgia Avenue",
      "city": "Bancroft",
      "state": "Federated States Of Micronesia",
      "zip": 1197
    },
    {
      "_id": "5b546f27a2cb05865fd109db",
      "name": "Bright Donaldson",
      "address": "487 Corbin Place",
      "city": "Vernon",
      "state": "Connecticut",
      "zip": 5306
    },
    {
      "_id": "5b546f27968addfde99209a1",
      "name": "Cunningham Dickson",
      "address": "288 Knight Court",
      "city": "Cecilia",
      "state": "Indiana",
      "zip": 4525
    },
    {
      "_id": "5b546f27a25c370307a2a18f",
      "name": "Bauer Mclean",
      "address": "571 Harden Street",
      "city": "Marysville",
      "state": "Alaska",
      "zip": 5053
    },
    {
      "_id": "5b546f272b0e7eb5f0225976",
      "name": "Ward Stafford",
      "address": "519 Duryea Court",
      "city": "Sandston",
      "state": "Virgin Islands",
      "zip": 3461
    },
    {
      "_id": "5b546f27758c3e33e306c260",
      "name": "Chang Atkinson",
      "address": "788 Crescent Street",
      "city": "Wildwood",
      "state": "Illinois",
      "zip": 5237
    },
    {
      "_id": "5b546f27ab2dff624fad52d2",
      "name": "Connie Wynn",
      "address": "287 Arlington Avenue",
      "city": "Brule",
      "state": "Virginia",
      "zip": 9547
    },
    {
      "_id": "5b546f275852dba096d7f2be",
      "name": "Cotton Sosa",
      "address": "577 Granite Street",
      "city": "Frierson",
      "state": "Colorado",
      "zip": 7743
    },
    {
      "_id": "5b546f27d4d40163244c27e3",
      "name": "Avis Harding",
      "address": "484 Loring Avenue",
      "city": "Esmont",
      "state": "Maine",
      "zip": 7119
    },
    {
      "_id": "5b546f2764a49203a7116214",
      "name": "Matthews Bright",
      "address": "750 Joralemon Street",
      "city": "Valle",
      "state": "Oklahoma",
      "zip": 8391
    },
    {
      "_id": "5b546f2766fdb1fc1e4f32dc",
      "name": "Millie Albert",
      "address": "527 Reeve Place",
      "city": "Stonybrook",
      "state": "Mississippi",
      "zip": 7197
    },
    {
      "_id": "5b546f2739991e40b968bf9a",
      "name": "Kristin Waller",
      "address": "343 Kings Hwy",
      "city": "Freetown",
      "state": "Missouri",
      "zip": 284
    },
    {
      "_id": "5b546f274e94ec81983c0948",
      "name": "Rivera Flynn",
      "address": "324 Navy Street",
      "city": "Avalon",
      "state": "New Jersey",
      "zip": 4766
    },
    {
      "_id": "5b546f27aa01e36d5695162b",
      "name": "Olson Foley",
      "address": "333 Hunterfly Place",
      "city": "Manila",
      "state": "Kentucky",
      "zip": 1886
    },
    {
      "_id": "5b546f27041c1ace0e1910fb",
      "name": "Schneider Johnson",
      "address": "524 Bushwick Court",
      "city": "Springdale",
      "state": "California",
      "zip": 9892
    },
    {
      "_id": "5b546f27faca14f86f8a0a9a",
      "name": "Patton Kidd",
      "address": "929 Tapscott Avenue",
      "city": "Hartsville/Hartley",
      "state": "Arizona",
      "zip": 2905
    },
    {
      "_id": "5b546f27422cbc566472e7fa",
      "name": "Anastasia Wilkinson",
      "address": "265 Church Lane",
      "city": "Bonanza",
      "state": "Wyoming",
      "zip": 8372
    },
    {
      "_id": "5b546f27a8718acd350f0472",
      "name": "Allie Boyle",
      "address": "258 Billings Place",
      "city": "Templeton",
      "state": "Northern Mariana Islands",
      "zip": 772
    },
    {
      "_id": "5b546f2714b2c33682692fa5",
      "name": "Lizzie Hamilton",
      "address": "437 Berry Street",
      "city": "Rew",
      "state": "Ohio",
      "zip": 2363
    },
    {
      "_id": "5b546f27d54ef12baeb9d06b",
      "name": "Dominguez Dominguez",
      "address": "346 Pilling Street",
      "city": "Greenock",
      "state": "Alabama",
      "zip": 228
    },
    {
      "_id": "5b546f2720c6b3999163897c",
      "name": "Imelda Charles",
      "address": "184 Boynton Place",
      "city": "Townsend",
      "state": "Minnesota",
      "zip": 3178
    },
    {
      "_id": "5b546f27bb8d4ebd399e5063",
      "name": "Lenora Koch",
      "address": "189 Rapelye Street",
      "city": "Winchester",
      "state": "West Virginia",
      "zip": 1022
    },
    {
      "_id": "5b546f2756c429a1b1d7396b",
      "name": "Alissa Shannon",
      "address": "390 Kenilworth Place",
      "city": "Ladera",
      "state": "Puerto Rico",
      "zip": 2573
    },
    {
      "_id": "5b546f27aeddfcc479eb95f9",
      "name": "Fernandez Dixon",
      "address": "453 Elm Avenue",
      "city": "Soham",
      "state": "Kansas",
      "zip": 8475
    },
    {
      "_id": "5b546f2761d584103a3a7e20",
      "name": "Ashley Reyes",
      "address": "794 Chapel Street",
      "city": "Tonopah",
      "state": "Marshall Islands",
      "zip": 1019
    },
    {
      "_id": "5b546f27a386b808f6f1bbb3",
      "name": "Shawna Hensley",
      "address": "551 Grand Street",
      "city": "Lynn",
      "state": "Iowa",
      "zip": 3752
    },
    {
      "_id": "5b546f27d1f32aeb3f024281",
      "name": "Cooke Giles",
      "address": "472 Thornton Street",
      "city": "Dodge",
      "state": "Utah",
      "zip": 1452
    },
    {
      "_id": "5b546f27813896ef8b9b5fb7",
      "name": "Copeland Quinn",
      "address": "884 Forest Place",
      "city": "Bloomington",
      "state": "Delaware",
      "zip": 7742
    },
    {
      "_id": "5b546f27a48c965465df46d0",
      "name": "Dixon Farley",
      "address": "818 Narrows Avenue",
      "city": "Dowling",
      "state": "Hawaii",
      "zip": 9883
    },
    {
      "_id": "5b546f274043232a6b0a82a3",
      "name": "Mendez Moon",
      "address": "259 Vanderveer Place",
      "city": "Cornfields",
      "state": "American Samoa",
      "zip": 4671
    },
    {
      "_id": "5b546f274f21087ce2b8aa8e",
      "name": "Higgins Mckee",
      "address": "901 Highland Boulevard",
      "city": "Omar",
      "state": "Washington",
      "zip": 510
    },
    {
      "_id": "5b546f27ca74c37083877b6d",
      "name": "Lowery Collier",
      "address": "792 Homecrest Court",
      "city": "Concho",
      "state": "District Of Columbia",
      "zip": 5730
    },
    {
      "_id": "5b546f27b42ce279bf5e31ff",
      "name": "Hopper Patterson",
      "address": "427 Jerome Avenue",
      "city": "Cazadero",
      "state": "Oregon",
      "zip": 7703
    },
    {
      "_id": "5b546f27c0401c6e3235cc9e",
      "name": "Pena Dale",
      "address": "652 Farragut Place",
      "city": "Murillo",
      "state": "Vermont",
      "zip": 2662
    },
    {
      "_id": "5b546f27d50f4178a5b10b03",
      "name": "Eileen Terrell",
      "address": "995 Court Street",
      "city": "Bowden",
      "state": "Louisiana",
      "zip": 5162
    },
    {
      "_id": "5b546f275602c5acf558109c",
      "name": "Lola Mccray",
      "address": "761 Brightwater Court",
      "city": "Robbins",
      "state": "Nevada",
      "zip": 6813
    },
    {
      "_id": "5b546f27b761c90571f8dca9",
      "name": "Hardy Powell",
      "address": "553 Strickland Avenue",
      "city": "Cobbtown",
      "state": "New Mexico",
      "zip": 2287
    },
    {
      "_id": "5b546f27e1fadd142fc750c1",
      "name": "Armstrong Shaffer",
      "address": "358 Seabring Street",
      "city": "Dargan",
      "state": "North Dakota",
      "zip": 6148
    },
    {
      "_id": "5b546f2729f5530f913f5bcf",
      "name": "Griffin Buchanan",
      "address": "534 Clark Street",
      "city": "Coaldale",
      "state": "South Carolina",
      "zip": 8187
    }
  ] 